NORAD_CAT_ID,OBJECT_NAME,OBJECT_TYPE,EPOCH,MEAN_MOTION,ECCENTRICITY,INCLINATION,RA_OF_ASC_NODE,ARG_OF_PERICENTER,MEAN_ANOMALY,BSTAR,MEAN_MOTION_DOT,MEAN_MOTION_DDOT,TLE_LINE0,TLE_LINE1,TLE_LINE2,SEMIMAJOR_AXIS,PERIOD,APOGEE,PERIGEE,DECAYED
50190.0,STARLINK-3268,PAYLOAD,2023-10-13 13:24:59,15.08852353,0.0001389,53.2148,221.2025,88.036,272.0791,0.00034977,5.285e-05,0.0,0 STARLINK-3268,1 50190U 21125AL  23286.55901981  .00005285  00000-0  34977-3 0  9998,2 50190  53.2148 221.2025 0001389  88.0360 272.0791 15.08852353104160,6917.843,95.437,540.669,538.747,0.0
50190.0,STARLINK-3268,PAYLOAD,2023-10-14 05:18:49,15.08869269,0.0001809,53.2165,218.2244,103.8857,256.2336,0.00063625,9.86e-05,0.0,0 STARLINK-3268,1 50190U 21125AL  23287.22141057  .00009860  00000-0  63625-3 0  9998,2 50190  53.2165 218.2244 0001809 103.8857 256.2336 15.08869269104266,6917.791,95.436,540.907,538.404,0.0
50190.0,STARLINK-3268,PAYLOAD,2023-10-14 19:37:18,15.08836617,0.0002064,53.2157,215.547,110.7263,249.3951,-0.00013721,-2.471e-05,0.0,0 STARLINK-3268,1 50190U 21125AL  23287.81757945 -.00002471  00000-0 -13721-3 0  9997,2 50190  53.2157 215.5470 0002064 110.7263 249.3951 15.08836617103873,6917.891,95.438,541.184,538.328,0.0
50190.0,STARLINK-3268,PAYLOAD,2023-10-15 05:09:38,15.08825354,0.0001297,53.2156,213.7659,90.3086,269.8055,0.00024697,3.643e-05,0.0,0 STARLINK-3268,1 50190U 21125AL  23288.21502591  .00003643  00000-0  24697-3 0  9991,2 50190  53.2156 213.7659 0001297  90.3086 269.8055 15.08825354103939,6917.925,95.438,540.687,538.893,0.0
50190.0,STARLINK-3268,PAYLOAD,2023-10-16 01:49:39,15.08854094,0.0001287,53.2159,209.9008,80.1917,279.922,0.0010238,0.0001605,0.0,0 STARLINK-3268,1 50190U 21125AL  23289.07614618  .00016050  00000-0  10238-2 0  9991,2 50190  53.2159 209.9008 0001287  80.1917 279.9220 15.08854094104060,6917.837,95.437,540.593,538.812,0.0
50190.0,STARLINK-3268,PAYLOAD,2023-10-16 11:21:57,15.08857038,0.0001127,53.2152,208.117,79.667,280.4449,0.00054106,8.338e-05,0.0,0 STARLINK-3268,1 50190U 21125AL  23289.47358266  .00008338  00000-0  54106-3 0  9992,2 50190  53.2152 208.1170 0001127  79.6670 280.4449 15.08857038104607,6917.828,95.436,540.473,538.914,0.0
50190.0,STARLINK-3268,PAYLOAD,2023-10-17 11:12:44,15.08836823,0.0001283,53.2156,203.6586,89.1945,270.9194,-3.8093e-05,-8.94e-06,0.0,0 STARLINK-3268,1 50190U 21125AL  23290.46718625 -.00000894  00000-0 -38093-4 0  9991,2 50190  53.2156 203.6586 0001283  89.1945 270.9194 15.08836823104279,6917.89,95.438,540.643,538.868,0.0
50190.0,STARLINK-3268,PAYLOAD,2023-10-18 01:31:13,15.08840417,0.0001299,53.2154,200.9821,89.0316,271.0825,-5.9826e-05,-1.24e-05,0.0,0 STARLINK-3268,1 50190U 21125AL  23291.06334605 -.00001240  00000-0 -59826-4 0  9993,2 50190  53.2154 200.9821 0001299  89.0316 271.0825 15.08840417104847,6917.879,95.438,540.643,538.845,0.0
50190.0,STARLINK-3268,PAYLOAD,2023-10-18 11:03:31,15.08853786,0.0001615,53.2179,199.1941,79.2533,280.8641,-5.1783e-05,-1.112e-05,0.0,0 STARLINK-3268,1 50190U 21125AL  23291.46078246 -.00001112  00000-0 -51783-4 0  9995,2 50190  53.2179 199.1941 0001615  79.2533 280.8641 15.08853786104421,6917.838,95.437,540.82,538.586,0.0
50190.0,STARLINK-3268,PAYLOAD,2023-10-19 02:57:23,15.08844167,0.0001732,53.2179,196.221,79.4397,280.679,0.00017968,2.573e-05,0.0,0 STARLINK-3268,1 50190U 21125AL  23292.12318489  .00002573  00000-0  17968-3 0  9991,2 50190  53.2179 196.2210 0001732  79.4397 280.6790 15.08844167104525,6917.868,95.437,540.931,538.534,0.0
50190.0,STARLINK-3268,PAYLOAD,2023-10-20 01:12:46,15.08852948,0.000148,53.2172,192.0593,85.1483,274.9678,0.00017108,2.437e-05,0.0,0 STARLINK-3268,1 50190U 21125AL  23293.05053655  .00002437  00000-0  17108-3 0  9990,2 50190  53.2172 192.0593 0001480  85.1483 274.9678 15.08852948105142,6917.841,95.437,540.73,538.682,0.0
50190.0,STARLINK-3268,PAYLOAD,2023-10-20 17:06:38,15.0883261,0.0001602,53.216,189.0865,89.94,270.1776,-6.9023e-05,-1.386e-05,0.0,0 STARLINK-3268,1 50190U 21125AL  23293.71294930 -.00001386  00000-0 -69023-4 0  9994,2 50190  53.2160 189.0865 0001602  89.9400 270.1776 15.08832610104762,6917.903,95.438,540.876,538.66,0.0
50190.0,STARLINK-3268,PAYLOAD,2023-10-20 21:52:48,15.08830053,0.0001327,53.2158,188.1945,85.6379,274.4765,-0.00010366,-1.937e-05,0.0,0 STARLINK-3268,1 50190U 21125AL  23293.91167167 -.00001937  00000-0 -10366-3 0  9994,2 50190  53.2158 188.1945 0001327  85.6379 274.4765 15.08830053105271,6917.911,95.438,540.694,538.858,0.0
50190.0,STARLINK-3268,PAYLOAD,2023-10-21 10:35:53,15.08838209,0.0001488,53.2165,185.8127,113.1555,246.9594,4.1075e-05,3.66e-06,0.0,0 STARLINK-3268,1 50190U 21125AL  23294.44158849  .00000366  00000-0  41075-4 0  9995,2 50190  53.2165 185.8127 0001488 113.1555 246.9594 15.08838209105350,6917.886,95.438,540.78,538.721,0.0
50190.0,STARLINK-3268,PAYLOAD,2023-10-21 20:08:11,15.08850593,0.0001283,53.2157,184.0343,67.9419,292.1709,0.00011562,1.553e-05,0.0,0 STARLINK-3268,1 50190U 21125AL  23294.83902092  .00001553  00000-0  11562-3 0  9991,2 50190  53.2157 184.0343 0001283  67.9419 292.1709 15.08850593104934,6917.848,95.437,540.601,538.825,0.0
50190.0,STARLINK-3268,PAYLOAD,2023-10-21 21:43:34,15.08859055,0.0001685,53.2165,183.7334,96.5712,263.5472,0.00031131,4.672e-05,0.0,0 STARLINK-3268,1 50190U 21125AL  23294.90525592  .00004672  00000-0  31131-3 0  9994,2 50190  53.2165 183.7334 0001685  96.5712 263.5472 15.08859055105425,6917.822,95.436,540.853,538.521,0.0
50190.0,STARLINK-3268,PAYLOAD,2023-10-21 23:18:57,15.08862213,0.0001661,53.2164,183.4355,99.364,260.754,0.00032183,4.841e-05,0.0,0 STARLINK-3268,1 50190U 21125AL  23294.97149363  .00004841  00000-0  32183-3 0  9995,2 50190  53.2164 183.4355 0001661  99.3640 260.7540 15.08862213104951,6917.812,95.436,540.827,538.528,0.0
50190.0,STARLINK-3268,PAYLOAD,2023-10-22 19:58:59,15.08830176,0.0001504,53.216,179.5666,105.9433,254.1725,2.4808e-05,1.07e-06,0.0,0 STARLINK-3268,1 50190U 21125AL  23295.83263425  .00000107  00000-0  24808-4 0  9994,2 50190  53.2160 179.5666 0001504 105.9433 254.1725 15.08830176105088,6917.91,95.438,540.816,538.735,0.0
50190.0,STARLINK-3268,PAYLOAD,2023-10-22 23:09:46,15.08823183,0.0001563,53.2158,178.977,79.2422,280.8746,-9.737e-06,-4.43e-06,0.0,0 STARLINK-3268,1 50190U 21125AL  23295.96512050 -.00000443  00000-0 -97370-5 0  9999,2 50190  53.2158 178.9770 0001563  79.2422 280.8746 15.08823183105584,6917.932,95.439,540.878,538.716,0.0
50190.0,STARLINK-3268,PAYLOAD,2023-10-23 19:49:46,15.08837382,0.0001541,53.2162,175.1088,76.8208,283.2956,-7.8901e-05,-1.543e-05,0.0,0 STARLINK-3268,1 50190U 21125AL  23296.82623685 -.00001543  00000-0 -78901-4 0  9992,2 50190  53.2162 175.1088 0001541  76.8208 283.2956 15.08837382105239,6917.888,95.438,540.819,538.687,0.0
50190.0,STARLINK-3268,PAYLOAD,2023-10-23 23:00:32,15.08843771,0.0001476,53.2155,174.5166,76.2115,283.9041,4.245e-05,3.88e-06,0.0,0 STARLINK-3268,1 50190U 21125AL  23296.95871428  .00000388  00000-0  42450-4 0  9990,2 50190  53.2155 174.5166 0001476  76.2115 283.9041 15.08843771105735,6917.869,95.437,540.755,538.713,0.0
50190.0,STARLINK-3268,PAYLOAD,2023-10-24 08:32:51,15.08846272,0.0001469,53.2155,172.7329,74.3797,285.7357,0.00011104,1.48e-05,0.0,0 STARLINK-3268,1 50190U 21125AL  23297.35615341  .00001480  00000-0  11104-3 0  9990,2 50190  53.2155 172.7329 0001469  74.3797 285.7357 15.08846272105316,6917.861,95.437,540.742,538.71,0.0
50190.0,STARLINK-3268,PAYLOAD,2023-10-25 02:02:05,15.08861516,0.0001501,53.2151,169.4612,70.5388,289.5767,0.00057464,8.875e-05,0.0,0 STARLINK-3268,1 50190U 21125AL  23298.08479082  .00008875  00000-0  57464-3 0  9995,2 50190  53.2151 169.4612 0001501  70.5388 289.5767 15.08861516105428,6917.815,95.436,540.718,538.641,0.0
50190.0,STARLINK-3268,PAYLOAD,2023-10-25 22:42:06,15.08845869,0.0001734,53.215,165.5949,70.8295,289.2884,6.8405e-05,8.01e-06,0.0,0 STARLINK-3268,1 50190U 21125AL  23298.94591173  .00000801  00000-0  68405-4 0  9995,2 50190  53.2150 165.5949 0001734  70.8295 289.2884 15.08845869106033,6917.862,95.437,540.927,538.528,0.0
50190.0,STARLINK-3268,PAYLOAD,2023-10-26 01:52:52,15.08847936,0.0001746,53.2151,165.0,70.912,289.2061,9.7586e-05,1.266e-05,0.0,0 STARLINK-3268,1 50190U 21125AL  23299.07839113  .00001266  00000-0  97586-4 0  9997,2 50190  53.2151 165.0000 0001746  70.9120 289.2061 15.08847936105570,6917.856,95.437,540.929,538.513,0.0
50190.0,STARLINK-3268,PAYLOAD,2023-10-26 22:32:53,15.08850019,0.0001503,53.2152,161.1323,86.8966,273.2198,0.00012366,1.681e-05,0.0,0 STARLINK-3268,1 50190U 21125AL  23299.93950576  .00001681  00000-0  12366-3 0  9992,2 50190  53.2152 161.1323 0001503  86.8966 273.2198 15.08850019106189,6917.85,95.437,540.755,538.675,0.0
50190.0,STARLINK-3268,PAYLOAD,2023-10-27 08:05:12,15.08845603,0.0001626,53.2152,159.3506,72.6042,287.5128,0.00016379,2.32e-05,0.0,0 STARLINK-3268,1 50190U 21125AL  23300.33695031  .00002320  00000-0  16379-3 0  9990,2 50190  53.2152 159.3506 0001626  72.6042 287.5128 15.08845603105762,6917.863,95.437,540.853,538.603,0.0
50190.0,STARLINK-3268,PAYLOAD,2023-10-27 20:48:17,15.08840931,0.0001492,53.2146,156.9695,86.0635,274.0527,0.00010101,1.32e-05,0.0,0 STARLINK-3268,1 50190U 21125AL  23300.86687197  .00001320  00000-0  10101-3 0  9998,2 50190  53.2146 156.9695 0001492  86.0635 274.0527 15.08840931106321,6917.878,95.437,540.775,538.71,0.0
50190.0,STARLINK-3268,PAYLOAD,2023-10-28 14:17:32,15.08836623,0.0001441,53.2142,153.7022,83.703,276.4126,7.9396e-05,9.76e-06,0.0,0 STARLINK-3268,1 50190U 21125AL  23301.59551670  .00000976  00000-0  79396-4 0  9993,2 50190  53.2142 153.7022 0001441  83.7030 276.4126 15.08836623106439,6917.891,95.438,540.753,538.759,0.0
50190.0,STARLINK-3268,PAYLOAD,2023-10-28 20:39:04,15.08842298,0.0001467,53.2142,152.5093,94.744,265.3719,4.2205e-05,3.84e-06,0.0,0 STARLINK-3268,1 50190U 21125AL  23301.86047372  .00000384  00000-0  42205-4 0  9994,2 50190  53.2142 152.5093 0001467  94.7440 265.3719 15.08842298106473,6917.873,95.437,540.753,538.724,0.0
